{
  "type": "FeatureCollection",
  "features": [
    {
      "type": "Feature",
      "properties": {
        "norad_id": 66440,
        "name": "STARLINK-35405",
        "group": "last-30-days",
        "lat": -25.235990266817996,
        "lon": -88.65672461396433,
        "alt_km": 445.9141727308852,
        "timestamp": "2025-12-10T09:57:43.487966+00:00",
        "meta_object_name": "STARLINK-35405",
        "meta_object_id": "2025-259U",
        "meta_epoch": "2025-12-10T04:00:01.998720",
        "meta_mean_motion": 15.41039474,
        "meta_eccentricity": 0.00015,
        "meta_inclination": 43.0003,
        "meta_ra_of_asc_node": 62.3913,
        "meta_arg_of_pericenter": 283.0061,
        "meta_mean_anomaly": 356.1051,
        "meta_ephemeris_type": 0,
        "meta_classification_type": "U",
        "meta_norad_cat_id": 66440,
        "meta_element_set_no": 999,
        "meta_rev_at_epoch": 586,
        "meta_bstar": -0.014409,
        "meta_mean_motion_dot": -0.00565942,
        "meta_mean_motion_ddot": 0,
        "tle_line1": "1 66440U 25259U   25344.16668980 -.00565942  00000+0 -14409-1 0  9996",
        "tle_line2": "2 66440  43.0003  62.3913 0001500 283.0061 356.1051 15.41039474  5860"
      },
      "geometry": {
        "type": "Point",
        "coordinates": [
          -88.65672461396433,
          -25.235990266817996
        ]
      }
    },
    {
      "type": "Feature",
      "properties": {
        "norad_id": 66441,
        "name": "STARLINK-35426",
        "group": "last-30-days",
        "lat": -31.855684982590404,
        "lon": -77.24923119646965,
        "alt_km": 443.02820415375027,
        "timestamp": "2025-12-10T09:57:43.487977+00:00",
        "meta_object_name": "STARLINK-35426",
        "meta_object_id": "2025-259V",
        "meta_epoch": "2025-12-10T04:00:01.998720",
        "meta_mean_motion": 15.42925091,
        "meta_eccentricity": 0.000158,
        "meta_inclination": 43,
        "meta_ra_of_asc_node": 62.3644,
        "meta_arg_of_pericenter": 267.9518,
        "meta_mean_anomaly": 21.9019,
        "meta_ephemeris_type": 0,
        "meta_classification_type": "U",
        "meta_norad_cat_id": 66441,
        "meta_element_set_no": 999,
        "meta_rev_at_epoch": 586,
        "meta_bstar": -0.054678,
        "meta_mean_motion_dot": -0.02209097,
        "meta_mean_motion_ddot": 0,
        "tle_line1": "1 66441U 25259V   25344.16668980 -.02209097  00000+0 -54678-1 0  9997",
        "tle_line2": "2 66441  43.0000  62.3644 0001580 267.9518  21.9019 15.42925091  5866"
      },
      "geometry": {
        "type": "Point",
        "coordinates": [
          -77.24923119646965,
          -31.855684982590404
        ]
      }
    },
    {
      "type": "Feature",
      "properties": {
        "norad_id": 66442,
        "name": "STARLINK-34724",
        "group": "last-30-days",
        "lat": -36.744892190120375,
        "lon": -65.85049786227046,
        "alt_km": 439.5490562422183,
        "timestamp": "2025-12-10T09:57:43.487988+00:00",
        "meta_object_name": "STARLINK-34724",
        "meta_object_id": "2025-259W",
        "meta_epoch": "2025-12-10T04:00:01.998720",
        "meta_mean_motion": 15.44131689,
        "meta_eccentricity": 0.0001085,
        "meta_inclination": 42.9998,
        "meta_ra_of_asc_node": 62.3425,
        "meta_arg_of_pericenter": 260.1871,
        "meta_mean_anomaly": 39.1599,
        "meta_ephemeris_type": 0,
        "meta_classification_type": "U",
        "meta_norad_cat_id": 66442,
        "meta_element_set_no": 999,
        "meta_rev_at_epoch": 586,
        "meta_bstar": -0.047755,
        "meta_mean_motion_dot": -0.01996013,
        "meta_mean_motion_ddot": 0,
        "tle_line1": "1 66442U 25259W   25344.16668980 -.01996013  00000+0 -47755-1 0  9996",
        "tle_line2": "2 66442  42.9998  62.3425 0001085 260.1871  39.1599 15.44131689  5863"
      },
      "geometry": {
        "type": "Point",
        "coordinates": [
          -65.85049786227046,
          -36.744892190120375
        ]
      }
    },
    {
      "type": "Feature",
      "properties": {
        "norad_id": 66443,
        "name": "STARLINK-35219",
        "group": "last-30-days",
        "lat": -40.01005662131566,
        "lon": -54.858940117826904,
        "alt_km": 435.6475647572952,
        "timestamp": "2025-12-10T09:57:43.487999+00:00",
        "meta_object_name": "STARLINK-35219",
        "meta_object_id": "2025-259X",
        "meta_epoch": "2025-12-10T04:00:01.998720",
        "meta_mean_motion": 15.45476674,
        "meta_eccentricity": 0.0001217,
        "meta_inclination": 43.0005,
        "meta_ra_of_asc_node": 62.3225,
        "meta_arg_of_pericenter": 259.4135,
        "meta_mean_anomaly": 47.9673,
        "meta_ephemeris_type": 0,
        "meta_classification_type": "U",
        "meta_norad_cat_id": 66443,
        "meta_element_set_no": 999,
        "meta_rev_at_epoch": 575,
        "meta_bstar": -0.04611,
        "meta_mean_motion_dot": -0.02016298,
        "meta_mean_motion_ddot": 0,
        "tle_line1": "1 66443U 25259X   25344.16668980 -.02016298  00000+0 -46110-1 0  9990",
        "tle_line2": "2 66443  43.0005  62.3225 0001217 259.4135  47.9673 15.45476674  5759"
      },
      "geometry": {
        "type": "Point",
        "coordinates": [
          -54.858940117826904,
          -40.01005662131566
        ]
      }
    },
    {
      "type": "Feature",
      "properties": {
        "norad_id": 66444,
        "name": "STARLINK-35360",
        "group": "last-30-days",
        "lat": -42.94026676044911,
        "lon": -26.1555009499088,
        "alt_km": 415.5934421386073,
        "timestamp": "2025-12-10T09:57:43.488010+00:00",
        "meta_object_name": "STARLINK-35360",
        "meta_object_id": "2025-259Y",
        "meta_epoch": "2025-12-09T14:14:38.914944",
        "meta_mean_motion": 15.50671448,
        "meta_eccentricity": 0.0003008,
        "meta_inclination": 43.0004,
        "meta_ra_of_asc_node": 65.6336,
        "meta_arg_of_pericenter": 269.9974,
        "meta_mean_anomaly": 90.0542,
        "meta_ephemeris_type": 0,
        "meta_classification_type": "U",
        "meta_norad_cat_id": 66444,
        "meta_element_set_no": 999,
        "meta_rev_at_epoch": 568,
        "meta_bstar": 0.0018101,
        "meta_mean_motion_dot": 0.00107686,
        "meta_mean_motion_ddot": 0,
        "tle_line1": "1 66444U 25259Y   25343.59350596  .00107686  00000+0  18101-2 0  9996",
        "tle_line2": "2 66444  43.0004  65.6336 0003008 269.9974  90.0542 15.50671448  5683"
      },
      "geometry": {
        "type": "Point",
        "coordinates": [
          -26.1555009499088,
          -42.94026676044911
        ]
      }
    },
    {
      "type": "Feature",
      "properties": {
        "norad_id": 66445,
        "name": "STARLINK-34698",
        "group": "last-30-days",
        "lat": -41.89441732089783,
        "lon": -44.84581350801184,
        "alt_km": 431.6723912870557,
        "timestamp": "2025-12-10T09:57:43.488020+00:00",
        "meta_object_name": "STARLINK-34698",
        "meta_object_id": "2025-259Z",
        "meta_epoch": "2025-12-10T04:00:01.998720",
        "meta_mean_motion": 15.46826667,
        "meta_eccentricity": 0.0001433,
        "meta_inclination": 43.0005,
        "meta_ra_of_asc_node": 62.3044,
        "meta_arg_of_pericenter": 265.2841,
        "meta_mean_anomaly": 48.7121,
        "meta_ephemeris_type": 0,
        "meta_classification_type": "U",
        "meta_norad_cat_id": 66445,
        "meta_element_set_no": 999,
        "meta_rev_at_epoch": 575,
        "meta_bstar": -0.044913,
        "meta_mean_motion_dot": -0.02053908,
        "meta_mean_motion_ddot": 0,
        "tle_line1": "1 66445U 25259Z   25344.16668980 -.02053908  00000+0 -44913-1 0  9990",
        "tle_line2": "2 66445  43.0005  62.3044 0001433 265.2841  48.7121 15.46826667  5758"
      },
      "geometry": {
        "type": "Point",
        "coordinates": [
          -44.84581350801184,
          -41.89441732089783
        ]
      }
    },
    {
      "type": "Feature",
      "properties": {
        "norad_id": 66446,
        "name": "STARLINK-34986",
        "group": "last-30-days",
        "lat": -42.97824483515732,
        "lon": -28.796701248470193,
        "alt_km": 415.78948234654763,
        "timestamp": "2025-12-10T09:57:43.488031+00:00",
        "meta_object_name": "STARLINK-34986",
        "meta_object_id": "2025-259AA",
        "meta_epoch": "2025-12-09T14:15:08.032608",
        "meta_mean_motion": 15.5062385,
        "meta_eccentricity": 0.0002711,
        "meta_inclination": 42.9993,
        "meta_ra_of_asc_node": 65.636,
        "meta_arg_of_pericenter": 273.1662,
        "meta_mean_anomaly": 86.8888,
        "meta_ephemeris_type": 0,
        "meta_classification_type": "U",
        "meta_norad_cat_id": 66446,
        "meta_element_set_no": 999,
        "meta_rev_at_epoch": 568,
        "meta_bstar": 0.0023987,
        "meta_mean_motion_dot": 0.00143221,
        "meta_mean_motion_ddot": 0,
        "tle_line1": "1 66446U 25259AA  25343.59384297  .00143221  00000+0  23987-2 0  9996",
        "tle_line2": "2 66446  42.9993  65.6360 0002711 273.1662  86.8888 15.50623850  5688"
      },
      "geometry": {
        "type": "Point",
        "coordinates": [
          -28.796701248470193,
          -42.97824483515732
        ]
      }
    }
  ]
}